GOES 1 (SMS-C) [-]      
1 08366U 75100A   19092.69208434 -.00000067  00000-0  00000-0 0  9997
2 08366  10.8766 310.5282 0004810 344.7518  30.7532  1.00314537158670
GOES 2 [-]              
1 10061U 77048A   19092.49445490 -.00000299  00000-0  00000-0 0  9995
2 10061  12.2455 320.1268 0017949 349.1930 212.3832  0.99402036 97347
GOES 3 [-]              
1 10953U 78062A   19092.89160639 -.00000229  00000-0  00000-0 0  9998
2 10953  12.4569 323.9276 0004906   7.5040 347.0850  0.99365940102379
GOES 4 [-]              
1 11964U 80074A   19092.72820000  .00000061  00000-0  00000-0 0  9997
2 11964  13.3013 327.6666 0036614  31.7088 161.0794  0.99226712101319
GOES 5 [-]              
1 12472U 81049A   19092.25936729 -.00000005  00000-0  00000-0 0  9998
2 12472  13.7108 338.1318 0004707 331.7728 209.9226  1.00330602 96565
GOES 6 [-]              
1 14050U 83041A   19092.26023965 -.00000030  00000-0  00000-0 0  9994
2 14050  14.0493 343.1099 0003264   3.5922 177.8100  1.00320397189656
GOES 7 [-]              
1 17561U 87022A   19092.04834889  .00000042  00000-0  00000-0 0  9990
2 17561  15.0147 359.1525 0008675 345.0748 243.7008  0.99902837100672
GOES 8 [-]              
1 23051U 94022A   19092.57318181 -.00000144  00000-0  00000-0 0  9993
2 23051  12.1203  33.0932 0008992 302.3780  72.3413  0.98906825 98085
GOES 9 [-]              
1 23581U 95025A   19092.74344208 -.00000200  00000-0  00000-0 0  9996
2 23581  11.6111  32.8514 0004281 357.8305  66.3042  0.98802287 86752
GOES 10 [-]             
1 24786U 97019A   19092.80753015 -.00000143  00000-0  00000-0 0  9992
2 24786  10.0941  38.1388 0025626 184.0912   4.5597  0.99122111 79979
GOES 11 [-]             
1 26352U 00022A   19092.84877355 -.00000221  00000-0  00000-0 0  9996
2 26352   6.2709  68.3281 0004179 238.4341 141.7747  0.99043511 26403
GOES 12 [-]             
1 26871U 01031A   19092.67987130 -.00000125  00000-0  00000-0 0  9990
2 26871   7.4758  55.5312 0010257 266.0180 299.2766  0.99140362 64663
GOES 13 [B]             
1 29155U 06018A   19092.91819128 -.00000295  00000-0  00000-0 0  9994
2 29155   0.3777 283.4373 0012389 139.6912  38.5079  1.00269208 16986
GOES 14 [S]             
1 35491U 09033A   19092.90931527 -.00000103  00000-0  00000-0 0  9999
2 35491   0.1158 104.5423 0007561 133.2913 176.0943  1.00272015 35724
GOES 15 [+]             
1 36411U 10008A   19092.65755560  .00000042  00000-0  00000-0 0  9990
2 36411   0.0504  98.1511 0000888 166.7134  34.4868  1.00279838 33279
GOES 16 [+]             
1 41866U 16071A   19092.80882602 -.00000259  00000-0  00000-0 0  9992
2 41866   0.0107  17.8824 0000824  58.6113 330.3257  1.00271603  8712
GOES-S [+]              
1 43226U 18022A   19093.21954510  .00000087  00000-0  00000+0 0  9993
2 43226   0.0347  46.4485 0003094 345.3818 101.2524  1.00273319  4041
